$$SOE
2460154.500000000, A.D. 2023-Jul-29 00:00:00.0000, 2.242624052833209E+08, 2.822615093464447E+08, -2.918105062721540E+07,
2460161.500000000, A.D. 2023-Aug-05 00:00:00.0000, 2.164760708437197E+08, 2.899903200259903E+08, -2.865901484015644E+07,
2460168.500000000, A.D. 2023-Aug-12 00:00:00.0000, 2.084702212586802E+08, 2.974249086967274E+08, -2.810788640154459E+07,
2460175.500000000, A.D. 2023-Aug-19 00:00:00.0000, 2.002552036719552E+08, 3.045609056836559E+08, -2.752852541388226E+07,
2460182.500000000, A.D. 2023-Aug-26 00:00:00.0000, 1.918413021381984E+08, 3.113942447675214E+08, -2.692179454408227E+07,
2460189.500000000, A.D. 2023-Sep-02 00:00:00.0000, 1.832387353420464E+08, 3.179211505557156E+08, -2.628855844576395E+07,
2460196.500000000, A.D. 2023-Sep-09 00:00:00.0000, 1.744576549908686E+08, 3.241381263668174E+08, -2.562968327362983E+07,
2460203.500000000, A.D. 2023-Sep-16 00:00:00.0000, 1.655081449876830E+08, 3.300419425679200E+08, -2.494603630415529E+07,
2460210.500000000, A.D. 2023-Sep-23 00:00:00.0000, 1.564002217441197E+08, 3.356296256480301E+08, -2.423848567200261E+07,
2460217.500000000, A.D. 2023-Sep-30 00:00:00.0000, 1.471438352442272E+08, 3.408984492124167E+08, -2.350790008908622E+07,
2460224.500000000, A.D. 2023-Oct-07 00:00:00.0000, 1.377488684579359E+08, 3.458459263413305E+08, -2.275514836953503E+07,
2460231.500000000, A.D. 2023-Oct-14 00:00:00.0000, 1.282251360954346E+08, 3.504697999886143E+08, -2.198109912104759E+07,
2460238.500000000, A.D. 2023-Oct-21 00:00:00.0000, 1.185823858936048E+08, 3.547680330169702E+08, -2.118662076421735E+07,
2460245.500000000, A.D. 2023-Oct-28 00:00:00.0000, 1.088303009763205E+08, 3.587388001129620E+08, -2.037258156043410E+07,
2460252.500000000, A.D. 2023-Nov-04 00:00:00.0000, 9.897850199968365E+07, 3.623804807915118E+08, -1.953984959155576E+07,
2460259.500000000, A.D. 2023-Nov-11 00:00:00.0000, 8.903654922125490E+07, 3.656916528766228E+08, -1.868929275219731E+07,
2460266.500000000, A.D. 2023-Nov-18 00:00:00.0000, 7.901394467926206E+07, 3.686710863870032E+08, -1.782177877669746E+07,
2460273.500000000, A.D. 2023-Nov-25 00:00:00.0000, 6.892013452808310E+07, 3.713177378447134E+08, -1.693817530312106E+07,
2460280.500000000, A.D. 2023-Dec-02 00:00:00.0000, 5.876451153730287E+07, 3.736307449891655E+08, -1.603934997554898E+07,
2460287.500000000, A.D. 2023-Dec-09 00:00:00.0000, 4.855641781356146E+07, 3.756094218270673E+08, -1.512617059414236E+07,
2460294.500000000, A.D. 2023-Dec-16 00:00:00.0000, 3.830514801370298E+07, 3.772532540176364E+08, -1.419950533564226E+07,
2460301.500000000, A.D. 2023-Dec-23 00:00:00.0000, 2.801995337753312E+07, 3.785618952679454E+08, -1.326022301761295E+07,
2460308.500000000, A.D. 2023-Dec-30 00:00:00.0000, 1.771004522125349E+07, 3.795351657770393E+08, -1.230919319595109E+07,
2460315.500000000, A.D. 2024-Jan-06 00:00:00.0000, 7.384596100974074E+06, 3.801730503535058E+08, -1.134728612396772E+07,
2460322.500000000, A.D. 2024-Jan-13 00:00:00.0000, -2.947258204749592E+06, 3.804756943889410E+08, -1.037537300941961E+07,
2460329.500000000, A.D. 2024-Jan-20 00:00:00.0000, -1.327641468869206E+07, 3.804434007740944E+08, -9.394326429077610E+06,
2460336.500000000, A.D. 2024-Jan-27 00:00:00.0000, -2.359379912558221E+07, 3.800766284085864E+08, -8.405020660893530E+06,
2460343.500000000, A.D. 2024-Feb-03 00:00:00.0000, -3.389036254069881E+07, 3.793759913504552E+08, -7.408331970633522E+06,
2460350.500000000, A.D. 2024-Feb-10 00:00:00.0000, -4.415707787225416E+07, 3.783422583104423E+08, -6.405138900801420E+06,
2460357.500000000, A.D. 2024-Feb-17 00:00:00.0000, -5.438493670172620E+07, 3.769763524957389E+08, -5.396322572578490E+06,
2460364.500000000, A.D. 2024-Feb-24 00:00:00.0000, -6.456494602914441E+07, 3.752793518151786E+08, -4.382767001536191E+06,
2460371.500000000, A.D. 2024-Mar-02 00:00:00.0000, -7.468812507724847E+07, 3.732524894111212E+08, -3.365359431138039E+06,
2460378.500000000, A.D. 2024-Mar-09 00:00:00.0000, -8.474550199942809E+07, 3.708971544536456E+08, -2.344990700562894E+06,
2460385.500000000, A.D. 2024-Mar-16 00:00:00.0000, -9.472811011066738E+07, 3.682148933937687E+08, -1.322555665626481E+06,
2460392.500000000, A.D. 2024-Mar-23 00:00:00.0000, -1.046269837608190E+08, 3.652074127866473E+08, -2.989535714150518E+05,
2460399.500000000, A.D. 2024-Mar-30 00:00:00.0000, -1.144331561057560E+08, 3.618765836627847E+08, 7.249118277417421E+05,
2460406.500000000, A.D. 2024-Apr-06 00:00:00.0000, -1.241376585319464E+08, 3.582244440790101E+08, 1.748132103782550E+06,
2460413.500000000, A.D. 2024-Apr-13 00:00:00.0000, -1.337315182019778E+08, 3.542532006829925E+08, 2.769793690674752E+06,
2460420.500000000, A.D. 2024-Apr-20 00:00:00.0000, -1.432057546945971E+08, 3.499652319761289E+08, 3.788977427767918E+06,
2460427.500000000, A.D. 2024-Apr-27 00:00:00.0000, -1.525513772731149E+08, 3.453630927209223E+08, 4.804758205314070E+06,
2460434.500000000, A.D. 2024-May-04 00:00:00.0000, -1.617593827126726E+08, 3.404495187931489E+08, 5.816204648494050E+06,
2460441.500000000, A.D. 2024-May-11 00:00:00.0000, -1.708207534693502E+08, 3.352274323815668E+08, 6.822378811821193E+06,
2460448.500000000, A.D. 2024-May-18 00:00:00.0000, -1.797264561323037E+08, 3.296999475625750E+08, 7.822335880335137E+06,
2460455.500000000, A.D. 2024-May-25 00:00:00.0000, -1.884674401591303E+08, 3.238703762490651E+08, 8.815123877080560E+06,
2460462.500000000, A.D. 2024-Jun-01 00:00:00.0000, -1.970346368615344E+08, 3.177422344625920E+08, 9.799783369258329E+06,
2460469.500000000, A.D. 2024-Jun-08 00:00:00.0000, -2.054189584241407E+08, 3.113192489124537E+08, 1.077534715139942E+07,
2460476.500000000, A.D. 2024-Jun-15 00:00:00.0000, -2.136112965890689E+08, 3.046053644333121E+08, 1.174083991655587E+07,
2460483.500000000, A.D. 2024-Jun-22 00:00:00.0000, -2.216025220476387E+08, 2.976047534646538E+08, 1.269527810704874E+07,
2460490.500000000, A.D. 2024-Jun-29 00:00:00.0000, -2.293834866979220E+08, 2.903218257627512E+08, 1.363766999398263E+07,
2460497.500000000, A.D. 2024-Jul-06 00:00:00.0000, -2.369450261547263E+08, 2.827612358796906E+08, 1.456701554481016E+07,
2460504.500000000, A.D. 2024-Jul-13 00:00:00.0000, -2.442779605990650E+08, 2.749278912298266E+08, 1.548230613517587E+07,
2460511.500000000, A.D. 2024-Jul-20 00:00:00.0000, -2.513730959983019E+08, 2.668269618915904E+08, 1.638252438506716E+07,
2460518.500000000, A.D. 2024-Jul-27 00:00:00.0000, -2.582212264006242E+08, 2.584638911827275E+08, 1.726664410532716E+07,
2460525.500000000, A.D. 2024-Aug-03 00:00:00.0000, -2.648131370856585E+08, 2.498444066279046E+08, 1.813363030381942E+07,
2460532.500000000, A.D. 2024-Aug-10 00:00:00.0000, -2.711396084680508E+08, 2.409745313105989E+08, 1.898243924120511E+07,
2460539.500000000, A.D. 2024-Aug-17 00:00:00.0000, -2.771914207720957E+08, 2.318605956293153E+08, 1.981201853974609E+07,
2460546.500000000, A.D. 2024-Aug-24 00:00:00.0000, -2.829593595154153E+08, 2.225092494312384E+08, 2.062130734711225E+07,
2460553.500000000, A.D. 2024-Aug-31 00:00:00.0000, -2.884342217535211E+08, 2.129274744507124E+08, 2.140923654631460E+07,
2460560.500000000, A.D. 2024-Sep-07 00:00:00.0000, -2.936068227908568E+08, 2.031225971603488E+08, 2.217472899579197E+07,
2460567.500000000, A.D. 2024-Sep-14 00:00:00.0000, -2.984680033494624E+08, 1.931023030046967E+08, 2.291669988099694E+07,
2460574.500000000, A.D. 2024-Sep-21 00:00:00.0000, -3.030086393083934E+08, 1.828746523970926E+08, 2.363405740572712E+07,
2460581.500000000, A.D. 2024-Sep-28 00:00:00.0000, -3.072196545920744E+08, 1.724480952171304E+08, 2.432570361342291E+07,
2460588.500000000, A.D. 2024-Oct-05 00:00:00.0000, -3.110920336249918E+08, 1.618314837665888E+08, 2.499053501192603E+07,
2460595.500000000, A.D. 2024-Oct-12 00:00:00.0000, -3.146168338040817E+08, 1.510340871030428E+08, 2.562744328865918E+07,
2460602.500000000, A.D. 2024-Oct-19 00:00:00.0000, -3.177851998443752E+08, 1.400656064126053E+08, 2.623531626583762E+07,
2460609.500000000, A.D. 2024-Oct-26 00:00:00.0000, -3.205883801372748E+08, 1.289361905469151E+08, 2.681303904527188E+07,
2460616.500000000, A.D. 2024-Nov-02 00:00:00.0000, -3.230177449696130E+08, 1.176564514881593E+08, 2.735949531973354E+07,
2460623.500000000, A.D. 2024-Nov-09 00:00:00.0000, -3.250648066141787E+08, 1.062374796589976E+08, 2.787356885694589E+07,
2460630.500000000, A.D. 2024-Nov-16 00:00:00.0000, -3.267212413749362E+08, 9.469085895804110E+07, 2.835414516762410E+07,
2460637.500000000, A.D. 2024-Nov-23 00:00:00.0000, -3.279789136493220E+08, 8.302868133449563E+07, 2.880011336345531E+07,
2460644.500000000, A.D. 2024-Nov-30 00:00:00.0000, -3.288299019069048E+08, 7.126356070431633E+07, 2.921036819708919E+07,
2460651.500000000, A.D. 2024-Dec-07 00:00:00.0000, -3.292665262685176E+08, 5.940864645317207E+07, 2.958381229491154E+07,
2460658.500000000, A.D. 2024-Dec-14 00:00:00.0000, -3.292813784720355E+08, 4.747763755221766E+07, 2.991935876063069E+07,
2460665.500000000, A.D. 2024-Dec-21 00:00:00.0000, -3.288673566359631E+08, 3.548479582374287E+07, 3.021593427577917E+07,
2460672.500000000, A.D. 2024-Dec-28 00:00:00.0000, -3.280177029343103E+08, 2.344495514575284E+07, 3.047248228883122E+07,
2460679.500000000, A.D. 2025-Jan-04 00:00:00.0000, -3.267260416501104E+08, 1.137352870628944E+07, 3.068796626336554E+07,
2460686.500000000, A.D. 2025-Jan-11 00:00:00.0000, -3.249864194676793E+08, -7.134843299024142E+05, 3.086137330036495E+07,
2460693.500000000, A.D. 2025-Jan-18 00:00:00.0000, -3.227933489448286E+08, -1.279949398999454E+07, 3.099171815472579E+07,
2460700.500000000, A.D. 2025-Jan-25 00:00:00.0000, -3.201418549248772E+08, -2.486731732300102E+07, 3.107804759501992E+07,
2460707.500000000, A.D. 2025-Feb-01 00:00:00.0000, -3.170275236667555E+08, -3.689917929603750E+07, 3.111944509461449E+07,
2460714.500000000, A.D. 2025-Feb-08 00:00:00.0000, -3.134465545617257E+08, -4.887671713833941E+07, 3.111503585510895E+07,
2460721.500000000, A.D. 2025-Feb-15 00:00:00.0000, -3.093958142907292E+08, -6.078098857837977E+07, 3.106399215883224E+07,
$$EOE